DMSP 5D-3 F16 (USA 172) 
1 28054U 03048A   26115.82323705  .00000062  00000+0  56166-4 0  9994
2 28054  98.9932 139.2959 0006012 299.9161 140.3633 14.14476831162081
METEOSAT-9 (MSG-2)      
1 28912U 05049B   26114.93441968  .00000114  00000+0  00000+0 0  9992
2 28912   9.2443  54.6814 0000432 351.2709 189.0341  1.00273882  6463
DMSP 5D-3 F17 (USA 191) 
1 29522U 06050A   26115.77238407  .00000091  00000+0  69276-4 0  9997
2 29522  98.7396 123.4127 0009623 199.3740 160.7069 14.14982344  5012
FENGYUN 3A              
1 32958U 08026A   26115.81878316  .00000078  00000+0  57373-4 0  9993
2 32958  98.6855  57.6408 0007594 281.0589  78.9733 14.19559597927974
GOES 14                 
1 35491U 09033A   26115.87683596 -.00000057  00000+0  00000+0 0  9995
2 35491   1.5570  83.6370 0001710 311.6603 305.3506  1.00116377  6068
DMSP 5D-3 F18 (USA 210) 
1 35951U 09057A   26115.88145061  .00000285  00000+0  17084-3 0  9999
2 35951  98.9016  96.7734 0011925  44.0389 316.1732 14.14865919852196
EWS-G2 (GOES 15)        
1 36411U 10008A   26115.79351898  .00000010  00000+0  00000+0 0  9998
2 36411   1.1398  83.8010 0003880  23.6059  95.3210  1.00272333 59110
COMS 1                  
1 36744U 10032A   26115.80634572 -.00000354  00000+0  00000+0 0  9991
2 36744   4.6724  76.0521 0001016 305.2618 250.9254  1.00272833 50562
FENGYUN 3B              
1 37214U 10059A   26115.83573709  .00000194  00000+0  12386-3 0  9995
2 37214  98.9673 161.6163 0021685 337.8673 110.8581 14.14829602800025
SUOMI NPP               
1 37849U 11061A   26115.82820764  .00000058  00000+0  48450-4 0  9999
2 37849  98.7924  57.0712 0002750 104.1179 256.0303 14.19505703751019
METEOSAT-10 (MSG-3)     
1 38552U 12035B   26115.70968660 -.00000017  00000+0  00000+0 0  9998
2 38552   4.5500  61.2406 0002076 310.7742  97.3874  1.00267683 50339
METOP-B                 
1 38771U 12049A   26115.81831497  .00000095  00000+0  63134-4 0  9992
2 38771  98.6550 168.3510 0003382 125.2958 234.8537 14.21432951705829
INSAT-3D                
1 39216U 13038B   26115.80660573 -.00000351  00000+0  00000+0 0  9994
2 39216   1.7925  83.1654 0001492 279.5999 270.9537  1.00272318 46557
FENGYUN 3C              
1 39260U 13052A   26115.88645642  .00000093  00000+0  68495-4 0  9996
2 39260  98.4951  92.1737 0014778 169.3780 190.7710 14.15742374651160
METEOR-M 2              
1 40069U 14037A   26115.91588605  .00000267  00000+0  14146-3 0  9994
2 40069  98.5087  93.5162 0005545 177.0382 183.0829 14.21446584611896
HIMAWARI-8              
1 40267U 14060A   26115.80885906  .00000000  00000+0  00000+0 0  9997
2 40267   0.0234 104.3987 0000865 287.6057 253.6800  1.00268801 42237
FENGYUN 2G              
1 40367U 14090A   26115.87203934 -.00000313  00000+0  00000+0 0  9991
2 40367   5.5091  73.4313 0002969 146.1555  48.0199  1.00272778 41477
