[{"OBJECT_NAME":"DMSP 5D-3 F16 (USA 172)","OBJECT_ID":"2003-048A","EPOCH":"2026-04-25T19:45:27.681120","MEAN_MOTION":14.14476831,"ECCENTRICITY":0.0006012,"INCLINATION":98.9932,"RA_OF_ASC_NODE":139.2959,"ARG_OF_PERICENTER":299.9161,"MEAN_ANOMALY":140.3633,"EPHEMERIS_TYPE":0,"CLASSIFICATION_TYPE":"U","NORAD_CAT_ID":28054,"ELEMENT_SET_NO":999,"REV_AT_EPOCH":16208,"BSTAR":5.6166e-5,"MEAN_MOTION_DOT":6.2e-7,"MEAN_MOTION_DDOT":0},{"OBJECT_NAME":"METEOSAT-9 (MSG-2)","OBJECT_ID":"2005-049B","EPOCH":"2026-04-24T22:25:33.860352","MEAN_MOTION":1.00273882,"ECCENTRICITY":4.322e-5,"INCLINATION":9.2443,"RA_OF_ASC_NODE":54.6814,"ARG_OF_PERICENTER":351.2709,"MEAN_ANOMALY":189.0341,"EPHEMERIS_TYPE":0,"CLASSIFICATION_TYPE":"U","NORAD_CAT_ID":28912,"ELEMENT_SET_NO":999,"REV_AT_EPOCH":646,"BSTAR":0,"MEAN_MOTION_DOT":1.14e-6,"MEAN_MOTION_DDOT":0},{"OBJECT_NAME":"DMSP 5D-3 F17 (USA 191)","OBJECT_ID":"2006-050A","EPOCH":"2026-04-25T18:32:13.983648","MEAN_MOTION":14.14982344,"ECCENTRICITY":0.0009623,"INCLINATION":98.7396,"RA_OF_ASC_NODE":123.4127,"ARG_OF_PERICENTER":199.374,"MEAN_ANOMALY":160.7069,"EPHEMERIS_TYPE":0,"CLASSIFICATION_TYPE":"U","NORAD_CAT_ID":29522,"ELEMENT_SET_NO":999,"REV_AT_EPOCH":501,"BSTAR":6.9276e-5,"MEAN_MOTION_DOT":9.1e-7,"MEAN_MOTION_DDOT":0},{"OBJECT_NAME":"FENGYUN 3A","OBJECT_ID":"2008-026A","EPOCH":"2026-04-25T19:39:02.865024","MEAN_MOTION":14.19559597,"ECCENTRICITY":0.0007594,"INCLINATION":98.6855,"RA_OF_ASC_NODE":57.6408,"ARG_OF_PERICENTER":281.0589,"MEAN_ANOMALY":78.9733,"EPHEMERIS_TYPE":0,"CLASSIFICATION_TYPE":"U","NORAD_CAT_ID":32958,"ELEMENT_SET_NO":999,"REV_AT_EPOCH":92797,"BSTAR":5.7373e-5,"MEAN_MOTION_DOT":7.8e-7,"MEAN_MOTION_DDOT":0},{"OBJECT_NAME":"GOES 14","OBJECT_ID":"2009-033A","EPOCH":"2026-04-25T21:02:38.626944","MEAN_MOTION":1.00116377,"ECCENTRICITY":0.000171,"INCLINATION":1.557,"RA_OF_ASC_NODE":83.637,"ARG_OF_PERICENTER":311.6603,"MEAN_ANOMALY":305.3506,"EPHEMERIS_TYPE":0,"CLASSIFICATION_TYPE":"U","NORAD_CAT_ID":35491,"ELEMENT_SET_NO":999,"REV_AT_EPOCH":606,"BSTAR":0,"MEAN_MOTION_DOT":-5.7e-7,"MEAN_MOTION_DDOT":0},{"OBJECT_NAME":"DMSP 5D-3 F18 (USA 210)","OBJECT_ID":"2009-057A","EPOCH":"2026-04-25T21:09:17.332704","MEAN_MOTION":14.14865919,"ECCENTRICITY":0.0011925,"INCLINATION":98.9016,"RA_OF_ASC_NODE":96.7734,"ARG_OF_PERICENTER":44.0389,"MEAN_ANOMALY":316.1732,"EPHEMERIS_TYPE":0,"CLASSIFICATION_TYPE":"U","NORAD_CAT_ID":35951,"ELEMENT_SET_NO":999,"REV_AT_EPOCH":85219,"BSTAR":0.00017084,"MEAN_MOTION_DOT":2.85e-6,"MEAN_MOTION_DDOT":0},{"OBJECT_NAME":"EWS-G2 (GOES 15)","OBJECT_ID":"2010-008A","EPOCH":"2026-04-25T19:02:40.039872","MEAN_MOTION":1.00272333,"ECCENTRICITY":0.000388,"INCLINATION":1.1398,"RA_OF_ASC_NODE":83.801,"ARG_OF_PERICENTER":23.6059,"MEAN_ANOMALY":95.321,"EPHEMERIS_TYPE":0,"CLASSIFICATION_TYPE":"U","NORAD_CAT_ID":36411,"ELEMENT_SET_NO":999,"REV_AT_EPOCH":5911,"BSTAR":0,"MEAN_MOTION_DOT":1.0e-7,"MEAN_MOTION_DDOT":0},{"OBJECT_NAME":"COMS 1","OBJECT_ID":"2010-032A","EPOCH":"2026-04-25T19:21:08.270208","MEAN_MOTION":1.00272833,"ECCENTRICITY":0.0001016,"INCLINATION":4.6724,"RA_OF_ASC_NODE":76.0521,"ARG_OF_PERICENTER":305.2618,"MEAN_ANOMALY":250.9254,"EPHEMERIS_TYPE":0,"CLASSIFICATION_TYPE":"U","NORAD_CAT_ID":36744,"ELEMENT_SET_NO":999,"REV_AT_EPOCH":5056,"BSTAR":0,"MEAN_MOTION_DOT":-3.54e-6,"MEAN_MOTION_DDOT":0},{"OBJECT_NAME":"FENGYUN 3B","OBJECT_ID":"2010-059A","EPOCH":"2026-04-25T20:03:27.684576","MEAN_MOTION":14.14829602,"ECCENTRICITY":0.0021685,"INCLINATION":98.9673,"RA_OF_ASC_NODE":161.6163,"ARG_OF_PERICENTER":337.8673,"MEAN_ANOMALY":110.8581,"EPHEMERIS_TYPE":0,"CLASSIFICATION_TYPE":"U","NORAD_CAT_ID":37214,"ELEMENT_SET_NO":999,"REV_AT_EPOCH":80002,"BSTAR":0.00012386,"MEAN_MOTION_DOT":1.94e-6,"MEAN_MOTION_DDOT":0},{"OBJECT_NAME":"SUOMI NPP","OBJECT_ID":"2011-061A","EPOCH":"2026-04-25T19:52:37.140096","MEAN_MOTION":14.19505703,"ECCENTRICITY":0.000275,"INCLINATION":98.7924,"RA_OF_ASC_NODE":57.0712,"ARG_OF_PERICENTER":104.1179,"MEAN_ANOMALY":256.0303,"EPHEMERIS_TYPE":0,"CLASSIFICATION_TYPE":"U","NORAD_CAT_ID":37849,"ELEMENT_SET_NO":999,"REV_AT_EPOCH":75101,"BSTAR":4.845e-5,"MEAN_MOTION_DOT":5.8e-7,"MEAN_MOTION_DDOT":0},{"OBJECT_NAME":"METEOSAT-10 (MSG-3)","OBJECT_ID":"2012-035B","EPOCH":"2026-04-25T17:01:56.922240","MEAN_MOTION":1.00267683,"ECCENTRICITY":0.0002076,"INCLINATION":4.55,"RA_OF_ASC_NODE":61.2406,"ARG_OF_PERICENTER":310.7742,"MEAN_ANOMALY":97.3874,"EPHEMERIS_TYPE":0,"CLASSIFICATION_TYPE":"U","NORAD_CAT_ID":38552,"ELEMENT_SET_NO":999,"REV_AT_EPOCH":5033,"BSTAR":0,"MEAN_MOTION_DOT":-1.7e-7,"MEAN_MOTION_DDOT":0},{"OBJECT_NAME":"METOP-B","OBJECT_ID":"2012-049A","EPOCH":"2026-04-25T19:38:22.413408","MEAN_MOTION":14.21432951,"ECCENTRICITY":0.0003382,"INCLINATION":98.655,"RA_OF_ASC_NODE":168.351,"ARG_OF_PERICENTER":125.2958,"MEAN_ANOMALY":234.8537,"EPHEMERIS_TYPE":0,"CLASSIFICATION_TYPE":"U","NORAD_CAT_ID":38771,"ELEMENT_SET_NO":999,"REV_AT_EPOCH":70582,"BSTAR":6.3134e-5,"MEAN_MOTION_DOT":9.5e-7,"MEAN_MOTION_DDOT":0},{"OBJECT_NAME":"INSAT-3D","OBJECT_ID":"2013-038B","EPOCH":"2026-04-25T19:21:30.735072","MEAN_MOTION":1.00272318,"ECCENTRICITY":0.0001492,"INCLINATION":1.7925,"RA_OF_ASC_NODE":83.1654,"ARG_OF_PERICENTER":279.5999,"MEAN_ANOMALY":270.9537,"EPHEMERIS_TYPE":0,"CLASSIFICATION_TYPE":"U","NORAD_CAT_ID":39216,"ELEMENT_SET_NO":999,"REV_AT_EPOCH":4655,"BSTAR":0,"MEAN_MOTION_DOT":-3.51e-6,"MEAN_MOTION_DDOT":0},{"OBJECT_NAME":"FENGYUN 3C","OBJECT_ID":"2013-052A","EPOCH":"2026-04-25T21:16:29.834688","MEAN_MOTION":14.15742374,"ECCENTRICITY":0.0014778,"INCLINATION":98.4951,"RA_OF_ASC_NODE":92.1737,"ARG_OF_PERICENTER":169.378,"MEAN_ANOMALY":190.771,"EPHEMERIS_TYPE":0,"CLASSIFICATION_TYPE":"U","NORAD_CAT_ID":39260,"ELEMENT_SET_NO":999,"REV_AT_EPOCH":65116,"BSTAR":6.8495e-5,"MEAN_MOTION_DOT":9.3e-7,"MEAN_MOTION_DDOT":0},{"OBJECT_NAME":"METEOR-M 2","OBJECT_ID":"2014-037A","EPOCH":"2026-04-25T21:58:52.554720","MEAN_MOTION":14.21446584,"ECCENTRICITY":0.0005545,"INCLINATION":98.5087,"RA_OF_ASC_NODE":93.5162,"ARG_OF_PERICENTER":177.0382,"MEAN_ANOMALY":183.0829,"EPHEMERIS_TYPE":0,"CLASSIFICATION_TYPE":"U","NORAD_CAT_ID":40069,"ELEMENT_SET_NO":999,"REV_AT_EPOCH":61189,"BSTAR":0.00014146,"MEAN_MOTION_DOT":2.67e-6,"MEAN_MOTION_DDOT":0},{"OBJECT_NAME":"HIMAWARI-8","OBJECT_ID":"2014-060A","EPOCH":"2026-04-25T19:24:45.422784","MEAN_MOTION":1.00268801,"ECCENTRICITY":8.65e-5,"INCLINATION":0.0234,"RA_OF_ASC_NODE":104.3987,"ARG_OF_PERICENTER":287.6057,"MEAN_ANOMALY":253.68,"EPHEMERIS_TYPE":0,"CLASSIFICATION_TYPE":"U","NORAD_CAT_ID":40267,"ELEMENT_SET_NO":999,"REV_AT_EPOCH":4223,"BSTAR":0,"MEAN_MOTION_DOT":0,"MEAN_MOTION_DDOT":0},{"OBJECT_NAME":"FENGYUN 2G","OBJECT_ID":"2014-090A","EPOCH":"2026-04-25T20:55:44.198976","MEAN_MOTION":1.00272778,"ECCENTRICITY":0.0002969,"INCLINATION":5.5091,"RA_OF_ASC_NODE":73.4313,"ARG_OF_PERICENTER":146.1555,"MEAN_ANOMALY":48.0199,"EPHEMERIS_TYPE":0,"CLASSIFICATION_TYPE":"U","NORAD_CAT_ID":40367,"ELEMENT_SET_NO":999,"REV_AT_EPOCH":4147,"BSTAR":0,"MEAN_MOTION_DOT":-3.13e-6,"MEAN_MOTION_DDOT":0}]
